STARLINK-32862          
1 62864U 25022L   26068.53769444  .00011000  00000+0  38389-3 0  9996
2 62864  53.1575 130.5473 0000611 156.5334 203.5695 15.30119489 61875
NUSHSAT1                
1 63211U 25052B   26068.64700493  .00023034  00000+0  74857-3 0  9997
2 63211  97.4095 325.7239 0005501  84.7512 275.4357 15.31903202 54882
